[{"OBJECT_NAME":"STARLINK-6302","OBJECT_ID":"2023-061Y","EPOCH":"2026-03-09T22:00:01.999584","MEAN_MOTION":15.06824042,"ECCENTRICITY":0.00020207,"INCLINATION":42.9991,"RA_OF_ASC_NODE":183.5074,"ARG_OF_PERICENTER":276.9763,"MEAN_ANOMALY":155.4619,"EPHEMERIS_TYPE":0,"CLASSIFICATION_TYPE":"U","NORAD_CAT_ID":56396,"ELEMENT_SET_NO":999,"REV_AT_EPOCH":578,"BSTAR":0.0019317193,"MEAN_MOTION_DOT":0.00029184,"MEAN_MOTION_DDOT":0},{"OBJECT_NAME":"POSAT-2","OBJECT_ID":"2025-009DR","EPOCH":"2026-03-09T23:15:20.314368","MEAN_MOTION":15.10404492,"ECCENTRICITY":0.00077103,"INCLINATION":97.4906,"RA_OF_ASC_NODE":146.0095,"ARG_OF_PERICENTER":126.4226,"MEAN_ANOMALY":233.7715,"EPHEMERIS_TYPE":0,"CLASSIFICATION_TYPE":"U","NORAD_CAT_ID":63488,"ELEMENT_SET_NO":999,"REV_AT_EPOCH":5165,"BSTAR":0.0010942248,"MEAN_MOTION_DOT":0.00017957,"MEAN_MOTION_DDOT":0}]
